{"type": "FeatureCollection", "features": [{"type": "Feature", "properties": {"amenity": "bicycle_parking", "bicycle_parking": "building", "capacity": 80, "operator": "City of Toronto", "covered": "yes", "access": "customers", "fee": "yes", "supervised": "no", "opening_hours": "Mo-Su,PH 00:00-24:00", "description": "Access from: York St\n\nMAY BE DEFUNCT - NEEDS CONFIRMATION", "website": "https://www.toronto.ca/services-payments/streets-parking-transportation/cycling-in-toronto/bicycle-parking/bicycle-parking-stations/", "name": "Bicycle Parking Station at Union Station", "addr:housenumber": "25", "addr:street": "York St", "addr:city": "Toronto", "addr:postcode": "M5J 2V5", "start_date": 2009, "ref:open.toronto.ca:bicycle-parking-bike-stations-indoor:id": 1, "ref:open.toronto.ca:bicycle-parking-bike-stations-indoor:objectid": "1", "meta_borough": "Former Toronto", "meta_ward_name": "Spadina-Fort York", "meta_ward_number": "10", "meta_has_change_room": "Yes", "meta_has_tools_and_pump": "Yes", "meta_has_vending_machine": "Yes", "meta_source": "https://open.toronto.ca/dataset/bicycle-parking-bike-stations-indoor/", "meta_source_last_updated": "2023-05-03T17:05:52.259719+00:00"}, "geometry": {"type": "MultiPoint", "coordinates": [[-79.3812106584203, 43.6434230000811]]}}, {"type": "Feature", "properties": {"amenity": "bicycle_parking", "bicycle_parking": "building", "capacity": 52, "operator": "City of Toronto", "covered": "yes", "access": "customers", "fee": "yes", "supervised": "no", "opening_hours": "Mo-Su,PH 00:00-24:00", "description": "Access from: Victoria Park Ave\n\nLocated at the main entrance to Victoria Park Subway Station, the bicycle station offers secure, 24-hour bicycle parking with 52 bicycle parking spaces available on two-tier racks.", "website": "https://www.toronto.ca/services-payments/streets-parking-transportation/cycling-in-toronto/bicycle-parking/bicycle-parking-stations/", "name": "Bicycle Parking Station at Victoria Park Station", "addr:housenumber": "777", "addr:street": "Victoria Park Ave", "addr:city": "Toronto", "addr:postcode": "None", "start_date": 2012, "ref:open.toronto.ca:bicycle-parking-bike-stations-indoor:id": 2, "ref:open.toronto.ca:bicycle-parking-bike-stations-indoor:objectid": "2", "meta_borough": "Scarborough", "meta_ward_name": "Scarborough Southwest", "meta_ward_number": "20", "meta_has_change_room": "No", "meta_has_tools_and_pump": "No", "meta_has_vending_machine": "No", "meta_source": "https://open.toronto.ca/dataset/bicycle-parking-bike-stations-indoor/", "meta_source_last_updated": "2023-05-03T17:05:52.259719+00:00"}, "geometry": {"type": "MultiPoint", "coordinates": [[-79.2891570511807, 43.6945435700427]]}}, {"type": "Feature", "properties": {"amenity": "bicycle_parking", "bicycle_parking": "building", "capacity": 160, "operator": "City of Toronto", "covered": "yes", "access": "customers", "fee": "yes", "supervised": "no", "opening_hours": "Mo-Su,PH 00:00-24:00", "description": "Access from: Front St W\n\nThe Bicycle Station is located on the east side of York Street, just south of Front Street. The facility features [approximately 160] bike racks, a washroom, a change room and  a shower with complimentary towels, and an office where staff can register new members and renew bike station parking plans. Tools and pumps are available for members to perform minor repairs.", "website": "https://www.toronto.ca/services-payments/streets-parking-transportation/cycling-in-toronto/bicycle-parking/bicycle-parking-stations/", "name": "Bicycle Parking Station at Union Station", "addr:housenumber": "97", "addr:street": "Front St W", "addr:city": "Toronto", "addr:postcode": "M5J 1E6", "start_date": 2016, "ref:open.toronto.ca:bicycle-parking-bike-stations-indoor:id": 3, "ref:open.toronto.ca:bicycle-parking-bike-stations-indoor:objectid": "3", "meta_borough": "Former Toronto", "meta_ward_name": "Spadina-Fort York", "meta_ward_number": "10", "meta_has_change_room": "Yes", "meta_has_tools_and_pump": "Yes", "meta_has_vending_machine": "Yes", "meta_source": "https://open.toronto.ca/dataset/bicycle-parking-bike-stations-indoor/", "meta_source_last_updated": "2023-05-03T17:05:52.259719+00:00"}, "geometry": {"type": "MultiPoint", "coordinates": [[-79.3821167966934, 43.6451506888938]]}}, {"type": "Feature", "properties": {"amenity": "bicycle_parking", "bicycle_parking": "building", "capacity": 170, "operator": "City of Toronto", "covered": "yes", "access": "customers", "fee": "yes", "supervised": "no", "opening_hours": "Mo-Su,PH 00:00-24:00", "description": "Access from: Queen St W\n\nThe Nathan Phillips Square Bicycle Station is located in the underground parking facility at Toronto City Hall, 100 Queen Street West. The facility opened May 6, 2019 and includes 170 bicycle parking spaces, washrooms and showers, and a staff office. To visit the bike station on foot, use the \u201cSquirrel\u201d stairs or elevator, located between the skate rental and the snacks concession, to get to the P1 level of the parking garage, then follow the signs. Once you have access as a Bicycle Station member, you can ride your bike down the vehicle entrance on the north side of Queen St., just east of York St.  You can also wheel your bike down the stair channel on the Pedestrian Southbound Concourse stairway, on the sidewalk near where the food vendor trucks park on Queen Street.", "website": "https://www.toronto.ca/services-payments/streets-parking-transportation/cycling-in-toronto/bicycle-parking/bicycle-parking-stations/", "name": "Bicycle Parking Station at City Hall - Nathan Phillips Square", "addr:housenumber": "100", "addr:street": "Queen St W", "addr:city": "Toronto", "addr:postcode": "M5H 2N1", "start_date": 2019, "ref:open.toronto.ca:bicycle-parking-bike-stations-indoor:id": 4, "ref:open.toronto.ca:bicycle-parking-bike-stations-indoor:objectid": "4", "meta_borough": "Former Toronto", "meta_ward_name": "Spadina-Fort York", "meta_ward_number": "10", "meta_has_change_room": "Yes", "meta_has_tools_and_pump": "Yes", "meta_has_vending_machine": "Yes", "meta_source": "https://open.toronto.ca/dataset/bicycle-parking-bike-stations-indoor/", "meta_source_last_updated": "2023-05-03T17:05:52.259719+00:00"}, "geometry": {"type": "MultiPoint", "coordinates": [[-79.3836250552132, 43.6528221423182]]}}, {"type": "Feature", "properties": {"amenity": "bicycle_parking", "bicycle_parking": "building", "capacity": 68, "operator": "City of Toronto", "covered": "yes", "access": "customers", "fee": "yes", "supervised": "no", "opening_hours": "Mo-Su,PH 00:00-24:00", "description": "Access from: Keele St\n\nThe new TTC station at Finch and Keele features a bicycle station with secure parking for 68 bicycles. The facility opened to the public in October of 2018.", "website": "https://www.toronto.ca/services-payments/streets-parking-transportation/cycling-in-toronto/bicycle-parking/bicycle-parking-stations/", "name": "Bicycle Parking Station at Finch West Station", "addr:housenumber": "3955", "addr:street": "Keele St", "addr:city": "Toronto", "addr:postcode": "M3J 2W1", "start_date": 2018, "ref:open.toronto.ca:bicycle-parking-bike-stations-indoor:id": 5, "ref:open.toronto.ca:bicycle-parking-bike-stations-indoor:objectid": "5", "meta_borough": "North York", "meta_ward_name": "York Centre", "meta_ward_number": "06", "meta_has_change_room": "Yes", "meta_has_tools_and_pump": "Yes", "meta_has_vending_machine": "Yes", "meta_source": "https://open.toronto.ca/dataset/bicycle-parking-bike-stations-indoor/", "meta_source_last_updated": "2023-05-03T17:05:52.259719+00:00"}, "geometry": {"type": "MultiPoint", "coordinates": [[-79.4908951136414, 43.7650951513775]]}}]}